$$SOE
2461302.500000000, A.D. 2026-Sep-19 00:00:00.0000, 7.484203438934937E+07, 4.348664678001767E+08, 6.293482737504077E+07,
2461309.500000000, A.D. 2026-Sep-26 00:00:00.0000, 6.671617152786294E+07, 4.287712667501451E+08, 6.539138506178114E+07,
2461316.500000000, A.D. 2026-Oct-03 00:00:00.0000, 5.855192613666962E+07, 4.224297033431531E+08, 6.781034584662026E+07,
2461323.500000000, A.D. 2026-Oct-10 00:00:00.0000, 5.035232753623721E+07, 4.158334152985499E+08, 7.018839092635077E+07,
2461330.500000000, A.D. 2026-Oct-17 00:00:00.0000, 4.212077136251239E+07, 4.089735635274960E+08, 7.252192117085126E+07,
2461337.500000000, A.D. 2026-Oct-24 00:00:00.0000, 3.386106818221940E+07, 4.018407979888091E+08, 7.480702645474783E+07,
2461344.500000000, A.D. 2026-Oct-31 00:00:00.0000, 2.557749961336899E+07, 3.944252209648759E+08, 7.703945092185763E+07,
2461351.500000000, A.D. 2026-Nov-07 00:00:00.0000, 1.727488358177723E+07, 3.867163478038863E+08, 7.921455354150684E+07,
2461358.500000000, A.D. 2026-Nov-14 00:00:00.0000, 8.958650457994476E+06, 3.787030660587561E+08, 8.132726329260008E+07,
2461365.500000000, A.D. 2026-Nov-21 00:00:00.0000, 6.349301142678416E+05, 3.703735938504445E+08, 8.337202835896222E+07,
2461372.500000000, A.D. 2026-Nov-28 00:00:00.0000, -7.689348873252656E+06, 3.617154347339960E+08, 8.534275820048815E+07,
2461379.500000000, A.D. 2026-Dec-05 00:00:00.0000, -1.600634159071768E+07, 3.527153289056647E+08, 8.723275696912079E+07,
2461386.500000000, A.D. 2026-Dec-12 00:00:00.0000, -2.430714734350473E+07, 3.433592046599547E+08, 8.903464717560774E+07,
2461393.500000000, A.D. 2026-Dec-19 00:00:00.0000, -3.258164641828842E+07, 3.336321313133410E+08, 9.074028222892720E+07,
2461400.500000000, A.D. 2026-Dec-26 00:00:00.0000, -4.081830853134011E+07, 3.235182745211458E+08, 9.234064599600539E+07,
2461407.500000000, A.D. 2027-Jan-02 00:00:00.0000, -4.900396707416805E+07, 3.130008564161007E+08, 9.382573728403978E+07,
2461414.500000000, A.D. 2027-Jan-09 00:00:00.0000, -5.712355228639571E+07, 3.020621243546651E+08, 9.518443690288727E+07,
2461421.500000000, A.D. 2027-Jan-16 00:00:00.0000, -6.515977522487459E+07, 2.906833336350162E+08, 9.640435469740601E+07,
2461428.500000000, A.D. 2027-Jan-23 00:00:00.0000, -7.309275283908574E+07, 2.788447517084153E+08, 9.747165370012981E+07,
2461435.500000000, A.D. 2027-Jan-30 00:00:00.0000, -8.089956258481714E+07, 2.665256944595604E+08, 9.837084841095683E+07,
2461442.500000000, A.D. 2027-Feb-06 00:00:00.0000, -8.855371291265118E+07, 2.537046097574397E+08, 9.908457430096737E+07,
2461449.500000000, A.D. 2027-Feb-13 00:00:00.0000, -9.602451503247687E+07, 2.403592302007376E+08, 9.959332625473605E+07,
2461456.500000000, A.D. 2027-Feb-20 00:00:00.0000, -1.032763417920382E+08, 2.264668229785165E+08, 9.987516480046786E+07,
2461463.500000000, A.D. 2027-Feb-27 00:00:00.0000, -1.102677552326605E+08, 2.120045731934153E+08, 9.990539064399251E+07,
2461470.500000000, A.D. 2027-Mar-06 00:00:00.0000, -1.169504843100517E+08, 1.969501566667490E+08, 9.965619229594940E+07,
2461477.500000000, A.D. 2027-Mar-13 00:00:00.0000, -1.232682442757182E+08, 1.812825774962670E+08, 9.909627888500562E+07,
2461484.500000000, A.D. 2027-Mar-20 00:00:00.0000, -1.291554009396518E+08, 1.649833670003749E+08, 9.819052120706326E+07,
2461491.500000000, A.D. 2027-Mar-27 00:00:00.0000, -1.345355055005261E+08, 1.480382700773965E+08, 9.689964175651053E+07,
2461498.500000000, A.D. 2027-Apr-03 00:00:00.0000, -1.393197681740796E+08, 1.304395771214319E+08, 9.518002173336512E+07,
2461505.500000000, A.D. 2027-Apr-10 00:00:00.0000, -1.434056103111181E+08, 1.121892869842312E+08, 9.298373283975676E+07,
2461512.500000000, A.D. 2027-Apr-17 00:00:00.0000, -1.466755472013894E+08, 9.330329422726148E+07, 9.025895648440349E+07,
2461519.500000000, A.D. 2027-Apr-24 00:00:00.0000, -1.489968186847229E+08, 7.381675311494109E+07, 8.695102161119132E+07,
2461526.500000000, A.D. 2027-May-01 00:00:00.0000, -1.502224028984672E+08, 5.379063276472989E+07, 8.300436416569206E+07,
2461533.500000000, A.D. 2027-May-08 00:00:00.0000, -1.501942907460400E+08, 3.331917387480664E+07, 7.836575668160433E+07,
2461540.500000000, A.D. 2027-May-15 00:00:00.0000, -1.487500733402034E+08, 1.253741512671582E+07, 7.298911559580785E+07,
2461547.500000000, A.D. 2027-May-22 00:00:00.0000, -1.457338061028562E+08, -8.372839897829682E+06, 6.684197248332834E+07,
2461554.500000000, A.D. 2027-May-29 00:00:00.0000, -1.410114733101296E+08, -2.918112623831582E+07, 5.991319609986623E+07,
2461561.500000000, A.D. 2027-Jun-05 00:00:00.0000, -1.344899533444784E+08, -4.961349913808827E+07, 5.222076688887709E+07,
2461568.500000000, A.D. 2027-Jun-12 00:00:00.0000, -1.261362895671719E+08, -6.936716600737783E+07, 4.381756010486054E+07,
2461575.500000000, A.D. 2027-Jun-19 00:00:00.0000, -1.159921473487931E+08, -8.813455812499316E+07, 3.479272534907955E+07,
2461582.500000000, A.D. 2027-Jun-26 00:00:00.0000, -1.041780676309077E+08, -1.056330816707394E+08, 2.526697037579780E+07,
2461589.500000000, A.D. 2027-Jul-03 00:00:00.0000, -9.088459301751487E+07, -1.216335184639147E+08, 1.538195849331066E+07,
2461596.500000000, A.D. 2027-Jul-10 00:00:00.0000, -7.635185752204138E+07, -1.359795997387923E+08, 5.286259350497760E+06,
2461603.500000000, A.D. 2027-Jul-17 00:00:00.0000, -6.084329927898107E+07, -1.485943993869101E+08, -4.878494002041325E+06,
2461610.500000000, A.D. 2027-Jul-24 00:00:00.0000, -4.462040262816557E+07, -1.594740581069451E+08, -1.498809986135277E+07,
2461617.500000000, A.D. 2027-Jul-31 00:00:00.0000, -2.792353849648675E+07, -1.686730874104480E+08, -2.494150358240022E+07,
2461624.500000000, A.D. 2027-Aug-07 00:00:00.0000, -1.096075886725291E+07, -1.762865660205476E+08, -3.466205957293208E+07,
2461631.500000000, A.D. 2027-Aug-14 00:00:00.0000, 6.096267004130282E+06, -1.824334025376552E+08, -4.409566666296085E+07,
2461638.500000000, A.D. 2027-Aug-21 00:00:00.0000, 2.311127343612694E+07, -1.872428947177732E+08, -5.320727000741281E+07,
2461645.500000000, A.D. 2027-Aug-28 00:00:00.0000, 3.997957614840344E+07, -1.908451531315757E+08, -6.197689428848565E+07,
2461652.500000000, A.D. 2027-Sep-04 00:00:00.0000, 5.662310074179848E+07, -1.933649797484696E+08, -7.039591533495614E+07,
2461659.500000000, A.D. 2027-Sep-11 00:00:00.0000, 7.298533090356849E+07, -1.949184166145524E+08, -7.846389748071566E+07,
2461666.500000000, A.D. 2027-Sep-18 00:00:00.0000, 8.902673588774613E+07, -1.956111622192628E+08, -8.618607911423022E+07,
2461673.500000000, A.D. 2027-Sep-25 00:00:00.0000, 1.047208972388945E+08, -1.955381926281721E+08, -9.357146027235594E+07,
2461680.500000000, A.D. 2027-Oct-02 00:00:00.0000, 1.200513610802630E+08, -1.947841000449913E+08, -1.006313945487203E+08,
2461687.500000000, A.D. 2027-Oct-09 00:00:00.0000, 1.350091485128833E+08, -1.934238172559747E+08, -1.073785785736451E+08,
2461694.500000000, A.D. 2027-Oct-16 00:00:00.0000, 1.495908221380794E+08, -1.915235155825644E+08, -1.138263429392144E+08,
2461701.500000000, A.D. 2027-Oct-23 00:00:00.0000, 1.637970033881718E+08, -1.891415476224778E+08, -1.199881657150562E+08,
2461708.500000000, A.D. 2027-Oct-30 00:00:00.0000, 1.776312459969599E+08, -1.863293609913045E+08, -1.258773471847672E+08,
2461715.500000000, A.D. 2027-Nov-06 00:00:00.0000, 1.910991847225095E+08, -1.831323440205752E+08, -1.315067994395170E+08,
2461722.500000000, A.D. 2027-Nov-13 00:00:00.0000, 2.042078931468249E+08, -1.795905890780678E+08, -1.368889168331050E+08,
2461729.500000000, A.D. 2027-Nov-20 00:00:00.0000, 2.169654030594333E+08, -1.757395718456240E+08, -1.420355031023738E+08,
2461736.500000000, A.D. 2027-Nov-27 00:00:00.0000, 2.293803481029168E+08, -1.716107466677690E+08, -1.469577373872147E+08,
2461743.500000000, A.D. 2027-Dec-04 00:00:00.0000, 2.414616998657894E+08, -1.672320636116257E+08, -1.516661663179762E+08,
2461750.500000000, A.D. 2027-Dec-11 00:00:00.0000, 2.532185732203262E+08, -1.626284161803020E+08, -1.561707133139466E+08,
2461757.500000000, A.D. 2027-Dec-18 00:00:00.0000, 2.646600840216812E+08, -1.578220282530843E+08, -1.604806989108170E+08,
2461764.500000000, A.D. 2027-Dec-25 00:00:00.0000, 2.757952463483334E+08, -1.528327881205616E+08, -1.646048677913586E+08,
2461771.500000000, A.D. 2028-Jan-01 00:00:00.0000, 2.866328995240312E+08, -1.476785367966628E+08, -1.685514195295461E+08,
$$EOE